OBJECT_NAME,OBJECT_ID,EPOCH,MEAN_MOTION,ECCENTRICITY,INCLINATION,RA_OF_ASC_NODE,ARG_OF_PERICENTER,MEAN_ANOMALY,EPHEMERIS_TYPE,CLASSIFICATION_TYPE,NORAD_CAT_ID,ELEMENT_SET_NO,REV_AT_EPOCH,BSTAR,MEAN_MOTION_DOT,MEAN_MOTION_DDOT
FLOCK 4BE-27,2024-149AX,2026-07-16T12:50:36.795840,15.34932415,.00041383,97.3823,279.4090,177.3646,182.7620,0,U,60513,999,10664,.16362432E-3,.5463E-4,0
FLOCK 4BE-9,2024-149AY,2026-07-16T12:02:03.937344,15.41634310,.0003814,97.3789,282.0736,167.2022,192.9322,0,U,60514,999,10683,.27045184E-3,.11308E-3,0
FLOCK 4BE-6,2024-149BA,2026-07-16T11:44:14.413344,15.40338098,.00044695,97.3787,281.3626,169.4373,190.6967,0,U,60516,999,10678,.20661781E-3,.8253E-4,0
FLOCK 4BE-14,2024-149BB,2026-07-16T04:26:32.086176,15.41874549,.00055136,97.3693,281.2204,173.4498,186.6822,0,U,60517,999,10679,.23061047E-3,.9708E-4,0
FLOCK 4BE-1,2024-149BC,2026-07-16T11:52:08.294880,15.43540079,.0005143,97.3777,282.9168,171.9559,188.1772,0,U,60518,999,10689,.23493263E-3,.1046E-3,0
FLOCK 4BE-28,2024-149BD,2026-07-16T04:53:22.562304,15.46347044,.00052323,97.3746,283.4415,172.7057,187.4270,0,U,60519,999,10692,.52986944E-3,.26129E-3,0
IPERDRONE.0,2024-149BE,2026-07-16T06:18:16.363296,15.71195616,.00040926,97.3776,292.0068,165.9549,194.1829,0,U,60520,999,10747,.42975116E-3,.54341E-3,0
TRANSPORTER-11 OBJECT BF,2024-149BF,2026-07-16T05:39:33.038784,16.12703863,.00111053,97.3802,295.9069,250.2224,109.7864,0,U,60521,999,10771,.94653136E-3,.1048025E-1,.7018674E-3
CONNECTA IOT-2,2024-149BG,2026-07-16T11:05:28.978944,15.24200220,.00056852,97.3834,275.1670,207.6687,152.4249,0,U,60522,999,10635,.95822621E-4,.2264E-4,0
CONNECTA IOT-4,2024-149BJ,2026-07-16T04:50:20.394816,15.43194350,.00060938,97.3798,281.9358,171.7124,188.4225,0,U,60524,999,10680,.26295063E-3,.11586E-3,0
ORESAT0.5,2024-149BK,2026-07-16T04:29:13.105536,15.46131340,.00062855,97.3727,283.6522,161.1955,198.9527,0,U,60525,999,10695,.23308031E-3,.1134E-3,0
DEIMOS,2024-149BL,2026-07-16T05:39:32.975712,15.45215913,.00059911,97.3782,283.8270,166.8213,193.3193,0,U,60526,999,10693,.22768677E-3,.10731E-3,0
CUAVA-2,2024-149BM,2026-07-16T04:41:03.052608,15.36747239,.00069595,97.3722,278.7754,176.0248,184.1053,0,U,60527,999,10662,.184639E-3,.6551E-4,0
ERNST,2024-149BN,2026-07-16T05:20:33.242208,15.39910017,.00062782,97.3807,281.1740,175.7866,184.3434,0,U,60528,999,10674,.18345293E-3,.7216E-4,0
TORO,2024-149BQ,2026-07-16T04:37:05.589984,14.96517564,.00011332,97.6775,271.3189,101.5023,258.6326,0,U,60530,999,10429,.48552164E-4,.495E-5,0
HYPSO-2,2024-149BR,2026-07-16T04:10:36.575616,14.98936750,.00017431,97.6840,273.0140,97.7736,262.3685,0,U,60531,999,10439,.11018312E-3,.1274E-4,0
LEMU NGE,2024-149BS,2026-07-16T10:24:45.406368,14.95063491,.0000573,97.6836,271.8026,89.9053,270.2234,0,U,60532,999,10432,.10906276E-3,.1138E-4,0
LEMUR-2-STELLA,2024-149BT,2026-07-16T04:45:51.123168,15.12381661,.00012524,97.6736,279.7913,119.4240,240.7115,0,U,60533,999,10488,.30424857E-3,.5213E-4,0
SATELIOT_2,2024-149BU,2026-07-16T04:20:17.569824,14.96460509,.00015059,97.6823,271.6083,75.2139,284.9249,0,U,60534,999,10430,.42104464E-4,.421E-5,0
NIGHTJAR,2024-149BV,2026-07-16T03:51:53.134560,14.99173626,.00026831,97.6841,273.4616,94.3383,265.8147,0,U,60535,999,14721,.18569151E-3,.2201E-4,0
LEMUR-2-MARHISYAM,2024-149BW,2026-07-16T04:33:19.894176,15.11787785,.00023383,97.6879,280.2601,68.0137,292.1341,0,U,60536,999,10486,.3226253E-3,.5441E-4,0
SATELIOT_4,2024-149BX,2026-07-16T12:28:46.104384,14.96760154,.00009153,97.6729,271.4486,334.5830,25.5347,0,U,60537,999,10436,.34510212E-4,.338E-5,0
PICO-02A021,2024-149BY,2026-07-16T04:27:28.626336,15.03492308,.00037134,97.6737,275.7721,277.2422,82.8381,0,U,60538,999,10409,.14740479E-3,.1948E-4,0
ICEYE-X43,2024-149BZ,2026-07-16T10:51:38.620512,14.99788132,.00064509,97.6797,274.0249,342.2658,17.8339,0,U,60539,999,10450,.56399534E-4,.638E-5,0
HAWK-10A,2024-149CA,2026-07-16T04:30:03.157920,14.96592854,.00030026,97.6889,272.6007,358.9482,1.1732,0,U,60540,999,10432,.1641302E-4,.13E-5,0
UMBRA-09,2024-149CB,2026-07-16T04:39:26.936064,15.18868590,.00020698,97.6973,284.9133,200.1569,159.9583,0,U,60541,999,10512,.42666317E-3,.8827E-4,0
QPS-SAR-8 (AMATERU-IV),2024-149CC,2026-07-16T04:42:02.163168,15.04399205,.00035964,97.6657,276.1065,41.3590,318.7908,0,U,60542,999,10463,.13256957E-3,.179E-4,0
ARCTIC WEATHER SATELLITE,2024-149CD,2026-07-16T10:29:51.165600,14.89804552,.00027891,97.6791,267.0651,47.8341,312.3113,0,U,60543,999,10365,.36544354E-4,.297E-5,0
CAPELLA-15 (ACADIA-5),2024-149CE,2026-07-15T05:08:41.600832,14.92405560,.0003244,97.6759,268.4148,341.5394,18.5707,0,U,60544,999,10403,.23867E-3,.2389E-4,0
HAWK-10B,2024-149CF,2026-07-16T04:29:51.389376,14.96591813,.00053423,97.6807,271.9264,10.8089,349.3246,0,U,60545,999,10432,.18638923E-4,.155E-5,0
