FLOCK 4BE-27            
1 60513U 24149AX  26197.53514810  .00005463  00000+0  16362-3 0  9995
2 60513  97.3823 279.4090 0004138 177.3646 182.7620 15.34932415106640
FLOCK 4BE-9             
1 60514U 24149AY  26197.50143446  .00011308  00000+0  27045-3 0  9991
2 60514  97.3789 282.0736 0003814 167.2022 192.9322 15.41634310106839
FLOCK 4BE-6             
1 60516U 24149BA  26197.48905571  .00008253  00000+0  20662-3 0  9998
2 60516  97.3787 281.3626 0004469 169.4373 190.6967 15.40338098106786
FLOCK 4BE-14            
1 60517U 24149BB  26197.18509359  .00009708  00000+0  23061-3 0  9992
2 60517  97.3693 281.2204 0005513 173.4498 186.6822 15.41874549106791
FLOCK 4BE-1             
1 60518U 24149BC  26197.49454045  .00010460  00000+0  23493-3 0  9994
2 60518  97.3777 282.9168 0005143 171.9559 188.1772 15.43540079106894
FLOCK 4BE-28            
1 60519U 24149BD  26197.20373336  .00026129  00000+0  52987-3 0  9996
2 60519  97.3746 283.4415 0005232 172.7057 187.4270 15.46347044106922
IPERDRONE.0             
1 60520U 24149BE  26197.26268939  .00054341  00000+0  42975-3 0  9999
2 60520  97.3776 292.0068 0004092 165.9549 194.1829 15.71195616107470
TRANSPORTER-11 OBJECT BF
1 60521U 24149BF  26197.23579906  .01048025  70187-3  94653-3 0  9996
2 60521  97.3802 295.9069 0011105 250.2224 109.7864 16.12703863107718
CONNECTA IOT-2          
1 60522U 24149BG  26197.46214096  .00002264  00000+0  95823-4 0  9996
2 60522  97.3834 275.1670 0005685 207.6687 152.4249 15.24200220106359
CONNECTA IOT-4          
1 60524U 24149BJ  26197.20162494  .00011586  00000+0  26295-3 0  9997
2 60524  97.3798 281.9358 0006093 171.7124 188.4225 15.43194350106809
ORESAT0.5               
1 60525U 24149BK  26197.18695724  .00011340  00000+0  23308-3 0  9992
2 60525  97.3727 283.6522 0006285 161.1955 198.9527 15.46131340106952
DEIMOS                  
1 60526U 24149BL  26197.23579833  .00010731  00000+0  22769-3 0  9994
2 60526  97.3782 283.8270 0005991 166.8213 193.3193 15.45215913106932
CUAVA-2                 
1 60527U 24149BM  26197.19517422  .00006551  00000+0  18464-3 0  9998
2 60527  97.3722 278.7754 0006959 176.0248 184.1053 15.36747239106623
ERNST                   
1 60528U 24149BN  26197.22260697  .00007216  00000+0  18345-3 0  9999
2 60528  97.3807 281.1740 0006278 175.7866 184.3434 15.39910017106744
TORO                    
1 60530U 24149BQ  26197.19242581  .00000495  00000+0  48552-4 0  9996
2 60530  97.6775 271.3189 0001133 101.5023 258.6326 14.96517564104294
HYPSO-2                 
1 60531U 24149BR  26197.17403444  .00001274  00000+0  11018-3 0  9994
2 60531  97.6840 273.0140 0001743  97.7736 262.3685 14.98936750104393
LEMU NGE                
1 60532U 24149BS  26197.43385887  .00001138  00000+0  10906-3 0  9998
2 60532  97.6836 271.8026 0000573  89.9053 270.2234 14.95063491104324
LEMUR-2-STELLA          
1 60533U 24149BT  26197.19850837  .00005213  00000+0  30425-3 0  9990
2 60533  97.6736 279.7913 0001252 119.4240 240.7115 15.12381661104881
SATELIOT_2              
1 60534U 24149BU  26197.18075891  .00000421  00000+0  42104-4 0  9993
2 60534  97.6823 271.6083 0001505  75.2139 284.9249 14.96460509104300
NIGHTJAR                
1 60535U 24149BV  26197.16103165  .00002201  00000+0  18569-3 0  9993
2 60535  97.6841 273.4616 0002683  94.3383 265.8147 14.99173626147210
LEMUR-2-MARHISYAM       
1 60536U 24149BW  26197.18981359  .00005441  00000+0  32263-3 0  9991
2 60536  97.6879 280.2601 0002338  68.0137 292.1341 15.11787785104869
SATELIOT_4              
1 60537U 24149BX  26197.51997806  .00000338  00000+0  34510-4 0  9991
2 60537  97.6729 271.4486 0000915 334.5830  25.5347 14.96760154104369
PICO-02A021             
1 60538U 24149BY  26197.18574799  .00001948  00000+0  14740-3 0  9997
2 60538  97.6737 275.7721 0003713 277.2422  82.8381 15.03492308104093
ICEYE-X43               
1 60539U 24149BZ  26197.45253033  .00000638  00000+0  56400-4 0  9998
2 60539  97.6797 274.0249 0006450 342.2658  17.8339 14.99788132104506
HAWK-10A                
1 60540U 24149CA  26197.18753655  .00000130  00000+0  16413-4 0  9992
2 60540  97.6889 272.6007 0003002 358.9482   1.1732 14.96592854104329
UMBRA-09                
1 60541U 24149CB  26197.19406176  .00008827  00000+0  42666-3 0  9996
2 60541  97.6973 284.9133 0002069 200.1569 159.9583 15.18868590105129
QPS-SAR-8 (AMATERU-IV)  
1 60542U 24149CC  26197.19585837  .00001790  00000+0  13257-3 0  9995
2 60542  97.6657 276.1065 0003596  41.3590 318.7908 15.04399205104639
ARCTIC WEATHER SATELLITE
1 60543U 24149CD  26197.43739775  .00000297  00000+0  36544-4 0  9991
2 60543  97.6791 267.0651 0002789  47.8341 312.3113 14.89804552103654
CAPELLA-15 (ACADIA-5)   
1 60544U 24149CE  26196.21437038  .00002389  00000+0  23867-3 0  9991
2 60544  97.6759 268.4148 0003244 341.5394  18.5707 14.92405560104031
HAWK-10B                
1 60545U 24149CF  26197.18740034  .00000155  00000+0  18639-4 0  9993
2 60545  97.6807 271.9264 0005342  10.8089 349.3246 14.96591813104328
